[{"OBJECT_NAME":"STARLINK-3604","OBJECT_ID":"2022-017AZ","EPOCH":"2026-03-09T21:32:47.485248","MEAN_MOTION":15.08834424,"ECCENTRICITY":0.00013283,"INCLINATION":53.2193,"RA_OF_ASC_NODE":328.1913,"ARG_OF_PERICENTER":49.6075,"MEAN_ANOMALY":310.5033,"EPHEMERIS_TYPE":0,"CLASSIFICATION_TYPE":"U","NORAD_CAT_ID":51815,"ELEMENT_SET_NO":999,"REV_AT_EPOCH":22411,"BSTAR":5.7389416e-5,"MEAN_MOTION_DOT":6.25e-6,"MEAN_MOTION_DDOT":0},{"OBJECT_NAME":"LEMUR-2-SIERRINI","OBJECT_ID":"2024-149DR","EPOCH":"2026-03-09T19:24:50.445216","MEAN_MOTION":15.08682764,"ECCENTRICITY":0.00065795,"INCLINATION":97.6873,"RA_OF_ASC_NODE":151.1225,"ARG_OF_PERICENTER":147.8458,"MEAN_ANOMALY":212.3173,"EPHEMERIS_TYPE":0,"CLASSIFICATION_TYPE":"U","NORAD_CAT_ID":60579,"ELEMENT_SET_NO":999,"REV_AT_EPOCH":8546,"BSTAR":0.00092040134,"MEAN_MOTION_DOT":0.00014386,"MEAN_MOTION_DDOT":0}]
